{
    "links": {
        "self": "http://www.neowsapp.com/rest/v1/neo/3799723?api_key=iIulBulltgU6a56xZRHN4H3l9WmuAYTsLGpBGhQ2"
    },
    "id": "3799723",
    "neo_reference_id": "3799723",
    "name": "(2018 DJ1)",
    "designation": "2018 DJ1",
    "nasa_jpl_url": "http://ssd.jpl.nasa.gov/sbdb.cgi?sstr=3799723",
    "absolute_magnitude_h": 23.6,
    "estimated_diameter": {
        "kilometers": {
            "estimated_diameter_min": 0.0506471459,
            "estimated_diameter_max": 0.1132504611
        },
        "meters": {
            "estimated_diameter_min": 50.6471458835,
            "estimated_diameter_max": 113.2504610618
        },
        "miles": {
            "estimated_diameter_min": 0.0314706677,
            "estimated_diameter_max": 0.0703705522
        },
        "feet": {
            "estimated_diameter_min": 166.1651821003,
            "estimated_diameter_max": 371.5566426699
        }
    },
    "is_potentially_hazardous_asteroid": false,
    "close_approach_data": [
        {
            "close_approach_date": "2015-07-22",
            "close_approach_date_full": "2015-Jul-22 07:27",
            "epoch_date_close_approach": 1437550020000,
            "relative_velocity": {
                "kilometers_per_second": "31.6055433696",
                "kilometers_per_hour": "113779.9561306774",
                "miles_per_hour": "70698.4399635312"
            },
            "miss_distance": {
                "astronomical": "0.4080519542",
                "lunar": "158.7322101838",
                "kilometers": "61043703.197657554",
                "miles": "37930798.2925360852"
            },
            "orbiting_body": "Earth"
        },
        {
            "close_approach_date": "2018-02-11",
            "close_approach_date_full": "2018-Feb-11 04:00",
            "epoch_date_close_approach": 1518321600000,
            "relative_velocity": {
                "kilometers_per_second": "19.4358665491",
                "kilometers_per_hour": "69969.1195768478",
                "miles_per_hour": "43476.0898837364"
            },
            "miss_distance": {
                "astronomical": "0.0251530478",
                "lunar": "9.7845355942",
                "kilometers": "3762842.374888186",
                "miles": "2338121.8316055268"
            },
            "orbiting_body": "Earth"
        },
        {
            "close_approach_date": "2199-08-03",
            "close_approach_date_full": "2199-Aug-03 20:39",
            "epoch_date_close_approach": 7245146340000,
            "relative_velocity": {
                "kilometers_per_second": "25.9079703814",
                "kilometers_per_hour": "93268.6933730864",
                "miles_per_hour": "57953.5389461825"
            },
            "miss_distance": {
                "astronomical": "0.2177131135",
                "lunar": "84.6904011515",
                "kilometers": "32569418.050668245",
                "miles": "20237697.942161981"
            },
            "orbiting_body": "Earth"
        }
    ],
    "orbital_data": {
        "orbit_id": "2",
        "orbit_determination_date": "2018-03-07 06:28:20",
        "first_observation_date": "2018-02-23",
        "last_observation_date": "2018-03-07",
        "data_arc_in_days": 12,
        "observations_used": 21,
        "orbit_uncertainty": "8",
        "minimum_orbit_intersection": ".024475",
        "jupiter_tisserand_invariant": "3.853",
        "epoch_osculation": "2458179.5",
        "eccentricity": ".6614507336680157",
        "semi_major_axis": "1.74268956198897",
        "inclination": "2.603267910391525",
        "ascending_node_longitude": "175.4718381969682",
        "orbital_period": "840.2886003676092",
        "perihelion_distance": ".5899862726557727",
        "perihelion_argument": "236.2659020893072",
        "aphelion_distance": "2.895392851322166",
        "perihelion_time": "2458112.903779702640",
        "mean_anomaly": "28.53143467204147",
        "mean_motion": ".4284242340578074",
        "equinox": "J2000",
        "orbit_class": {
            "orbit_class_type": "APO",
            "orbit_class_description": "Near-Earth asteroid orbits which cross the Earth’s orbit similar to that of 1862 Apollo",
            "orbit_class_range": "a (semi-major axis) > 1.0 AU; q (perihelion) < 1.017 AU"
        }
    },
    "is_sentry_object": false
}